{
    "links": {
        "self": "http://www.neowsapp.com/rest/v1/neo/3842682?api_key=iIulBulltgU6a56xZRHN4H3l9WmuAYTsLGpBGhQ2"
    },
    "id": "3842682",
    "neo_reference_id": "3842682",
    "name": "(2019 KN5)",
    "designation": "2019 KN5",
    "nasa_jpl_url": "http://ssd.jpl.nasa.gov/sbdb.cgi?sstr=3842682",
    "absolute_magnitude_h": 27.1,
    "estimated_diameter": {
        "kilometers": {
            "estimated_diameter_min": 0.0101054342,
            "estimated_diameter_max": 0.0225964377
        },
        "meters": {
            "estimated_diameter_min": 10.1054341542,
            "estimated_diameter_max": 22.5964377109
        },
        "miles": {
            "estimated_diameter_min": 0.0062792237,
            "estimated_diameter_max": 0.0140407711
        },
        "feet": {
            "estimated_diameter_min": 33.1543125905,
            "estimated_diameter_max": 74.1352966996
        }
    },
    "is_potentially_hazardous_asteroid": false,
    "close_approach_data": [
        {
            "close_approach_date": "2019-05-22",
            "close_approach_date_full": "2019-May-22 19:15",
            "epoch_date_close_approach": 1558552500000,
            "relative_velocity": {
                "kilometers_per_second": "6.0889092778",
                "kilometers_per_hour": "21920.0734000262",
                "miles_per_hour": "13620.2811634774"
            },
            "miss_distance": {
                "astronomical": "0.0082919259",
                "lunar": "3.2255591751",
                "kilometers": "1240454.452837833",
                "miles": "770782.6553267754"
            },
            "orbiting_body": "Earth"
        },
        {
            "close_approach_date": "2019-05-23",
            "close_approach_date_full": "2019-May-23 11:05",
            "epoch_date_close_approach": 1558609500000,
            "relative_velocity": {
                "kilometers_per_second": "6.1671789964",
                "kilometers_per_hour": "22201.8443871162",
                "miles_per_hour": "13795.3626970945"
            },
            "miss_distance": {
                "astronomical": "0.0080347208",
                "lunar": "3.1255063912",
                "kilometers": "1201977.117724696",
                "miles": "746873.9479489648"
            },
            "orbiting_body": "Moon"
        },
        {
            "close_approach_date": "2073-02-19",
            "close_approach_date_full": "2073-Feb-19 09:34",
            "epoch_date_close_approach": 3254722440000,
            "relative_velocity": {
                "kilometers_per_second": "9.9065634311",
                "kilometers_per_hour": "35663.6283520792",
                "miles_per_hour": "22159.9917391017"
            },
            "miss_distance": {
                "astronomical": "0.0803182805",
                "lunar": "31.2438111145",
                "kilometers": "12015443.684862535",
                "miles": "7466050.500411583"
            },
            "orbiting_body": "Mars"
        }
    ],
    "orbital_data": {
        "orbit_id": "1",
        "orbit_determination_date": "2019-06-03 09:12:04",
        "first_observation_date": "2019-05-31",
        "last_observation_date": "2019-06-02",
        "data_arc_in_days": 2,
        "observations_used": 9,
        "orbit_uncertainty": "8",
        "minimum_orbit_intersection": ".00821004",
        "jupiter_tisserand_invariant": "4.306",
        "epoch_osculation": "2458635.5",
        "eccentricity": ".3746130040387728",
        "semi_major_axis": "1.585028805695545",
        "inclination": "1.258023968057219",
        "ascending_node_longitude": "261.5437128043311",
        "orbital_period": "728.8768653065365",
        "perihelion_distance": ".991256403305949",
        "perihelion_argument": "315.5974301187276",
        "aphelion_distance": "2.178801208085142",
        "perihelion_time": "2458605.515480552124",
        "mean_anomaly": "14.80967158519382",
        "mean_motion": ".4939105864590699",
        "equinox": "J2000",
        "orbit_class": {
            "orbit_class_type": "APO",
            "orbit_class_description": "Near-Earth asteroid orbits which cross the Earth’s orbit similar to that of 1862 Apollo",
            "orbit_class_range": "a (semi-major axis) > 1.0 AU; q (perihelion) < 1.017 AU"
        }
    },
    "is_sentry_object": false
}